KENT RIDGE 1            
1 41167U 15077B   26065.85251906  .00006306  00000+0  23237-3 0  9998
2 41167  14.9802 306.6631 0008444 236.7485 123.2028 15.22425774565479
GAOFEN-4                
1 41194U 15083A   26065.81643014 -.00000338  00000+0  00000+0 0  9995
2 41194   0.3862  83.8550 0003812  83.1675  37.1083  1.00272827 37509
JASON-3                 
1 41240U 16002A   26065.78904105 -.00000023  00000+0  15392-3 0  9991
2 41240  66.0449 341.1192 0007794 277.0235  82.9897 12.87625665474068
SENTINEL-3A             
1 41335U 16011A   26065.82688946  .00000166  00000+0  86571-4 0  9998
2 41335  98.6234 134.6553 0001239  99.9106 260.2214 14.26740522523466
ZIYUAN 3-02 (ZY 3-02)   
1 41556U 16033A   26065.84647844  .00008271  00000+0  36992-3 0  9997
2 41556  97.3902 143.5528 0011169 310.2433  49.7825 15.21501858542423
CARTOSAT-2C             
1 41599U 16040A   26065.83929800  .00004284  00000+0  20665-3 0  9996
2 41599  97.4610 127.1583 0010176 129.4826 230.7310 15.19185978538175
SKYSAT-C1               
1 41601U 16040C   26065.04900784  .00010713  00000+0  32342-3 0  9992
2 41601  96.9703 102.4170 0003810  60.9373 299.2252 15.34420377542045
LAPAN-A3                
1 41603U 16040E   26065.89056395  .00006248  00000+0  20205-3 0  9990
2 41603  97.1482  65.4612 0011376  32.1661 328.0273 15.32352035539144
GAOFEN-3                
1 41727U 16049A   26065.89037089 -.00000154  00000+0 -33682-4 0  9991
2 41727  98.4049  75.2045 0001654  93.0707 267.0672 14.42214681503902
SKYSAT-C4               
1 41771U 16058B   26065.80621162  .00020676  00000+0  43604-3 0  9995
2 41771  96.9290  92.0409 0000812 101.2909 258.8432 15.45249371529643
SKYSAT-C5               
1 41772U 16058C   26065.36886093  .00010041  00000+0  30538-3 0  9990
2 41772  97.0615 110.5767 0001803  85.3164 274.8286 15.34211377527989
SKYSAT-C2               
1 41773U 16058D   26065.78365747  .00015746  00000+0  40127-3 0  9997
2 41773  97.0281  91.8494 0005182  74.6583 285.5236 15.39605778529283
SKYSAT-C3               
1 41774U 16058E   26065.26182539  .00023595  00000+0  45033-3 0  9999
2 41774  96.9176 100.2785 0001616 106.4419 253.7010 15.48133107530161
ALSAT-1B                
1 41785U 16059C   26065.88452238  .00000822  00000+0  13788-3 0  9996
2 41785  97.7800  79.0492 0008893 186.4496 173.6599 14.72185161505528
PATHFINDER 1            
1 41787U 16059E   26065.25317304  .00001088  00000+0  19903-3 0  9993
2 41787  97.8176  69.1831 0028650 171.6406 188.5283 14.67511113504612
SCATSAT 1               
1 41790U 16059H   26065.40699848  .00002021  00000+0  27287-3 0  9992
2 41790  98.1311 128.0806 0054175 218.1979 141.5388 14.79250834 86399
GOKTURK 1A              
1 41875U 16073A   26065.84509273  .00000630  00000+0  13280-3 0  9994
2 41875  98.1370 322.0612 0001359  79.7207 280.4148 14.62746018493867
