[{"OBJECT_NAME":"KENT RIDGE 1","OBJECT_ID":"2015-077B","EPOCH":"2026-03-06T20:27:37.646784","MEAN_MOTION":15.22425774,"ECCENTRICITY":0.0008444,"INCLINATION":14.9802,"RA_OF_ASC_NODE":306.6631,"ARG_OF_PERICENTER":236.7485,"MEAN_ANOMALY":123.2028,"EPHEMERIS_TYPE":0,"CLASSIFICATION_TYPE":"U","NORAD_CAT_ID":41167,"ELEMENT_SET_NO":999,"REV_AT_EPOCH":56547,"BSTAR":0.00023237,"MEAN_MOTION_DOT":6.306e-5,"MEAN_MOTION_DDOT":0},{"OBJECT_NAME":"GAOFEN-4","OBJECT_ID":"2015-083A","EPOCH":"2026-03-06T19:35:39.564096","MEAN_MOTION":1.00272827,"ECCENTRICITY":0.0003812,"INCLINATION":0.3862,"RA_OF_ASC_NODE":83.855,"ARG_OF_PERICENTER":83.1675,"MEAN_ANOMALY":37.1083,"EPHEMERIS_TYPE":0,"CLASSIFICATION_TYPE":"U","NORAD_CAT_ID":41194,"ELEMENT_SET_NO":999,"REV_AT_EPOCH":3750,"BSTAR":0,"MEAN_MOTION_DOT":-3.38e-6,"MEAN_MOTION_DDOT":0},{"OBJECT_NAME":"JASON-3","OBJECT_ID":"2016-002A","EPOCH":"2026-03-06T18:56:13.146720","MEAN_MOTION":12.87625665,"ECCENTRICITY":0.0007794,"INCLINATION":66.0449,"RA_OF_ASC_NODE":341.1192,"ARG_OF_PERICENTER":277.0235,"MEAN_ANOMALY":82.9897,"EPHEMERIS_TYPE":0,"CLASSIFICATION_TYPE":"U","NORAD_CAT_ID":41240,"ELEMENT_SET_NO":999,"REV_AT_EPOCH":47406,"BSTAR":0.00015392,"MEAN_MOTION_DOT":-2.3e-7,"MEAN_MOTION_DDOT":0},{"OBJECT_NAME":"SENTINEL-3A","OBJECT_ID":"2016-011A","EPOCH":"2026-03-06T19:50:43.249344","MEAN_MOTION":14.26740522,"ECCENTRICITY":0.0001239,"INCLINATION":98.6234,"RA_OF_ASC_NODE":134.6553,"ARG_OF_PERICENTER":99.9106,"MEAN_ANOMALY":260.2214,"EPHEMERIS_TYPE":0,"CLASSIFICATION_TYPE":"U","NORAD_CAT_ID":41335,"ELEMENT_SET_NO":999,"REV_AT_EPOCH":52346,"BSTAR":8.6571e-5,"MEAN_MOTION_DOT":1.66e-6,"MEAN_MOTION_DDOT":0},{"OBJECT_NAME":"ZIYUAN 3-02 (ZY 3-02)","OBJECT_ID":"2016-033A","EPOCH":"2026-03-06T20:18:55.737216","MEAN_MOTION":15.21501858,"ECCENTRICITY":0.0011169,"INCLINATION":97.3902,"RA_OF_ASC_NODE":143.5528,"ARG_OF_PERICENTER":310.2433,"MEAN_ANOMALY":49.7825,"EPHEMERIS_TYPE":0,"CLASSIFICATION_TYPE":"U","NORAD_CAT_ID":41556,"ELEMENT_SET_NO":999,"REV_AT_EPOCH":54242,"BSTAR":0.00036992,"MEAN_MOTION_DOT":8.271e-5,"MEAN_MOTION_DDOT":0},{"OBJECT_NAME":"CARTOSAT-2C","OBJECT_ID":"2016-040A","EPOCH":"2026-03-06T20:08:35.347200","MEAN_MOTION":15.19185978,"ECCENTRICITY":0.0010176,"INCLINATION":97.461,"RA_OF_ASC_NODE":127.1583,"ARG_OF_PERICENTER":129.4826,"MEAN_ANOMALY":230.731,"EPHEMERIS_TYPE":0,"CLASSIFICATION_TYPE":"U","NORAD_CAT_ID":41599,"ELEMENT_SET_NO":999,"REV_AT_EPOCH":53817,"BSTAR":0.00020665,"MEAN_MOTION_DOT":4.284e-5,"MEAN_MOTION_DDOT":0},{"OBJECT_NAME":"SKYSAT-C1","OBJECT_ID":"2016-040C","EPOCH":"2026-03-06T01:10:34.277376","MEAN_MOTION":15.34420377,"ECCENTRICITY":0.00038102,"INCLINATION":96.9703,"RA_OF_ASC_NODE":102.417,"ARG_OF_PERICENTER":60.9373,"MEAN_ANOMALY":299.2252,"EPHEMERIS_TYPE":0,"CLASSIFICATION_TYPE":"U","NORAD_CAT_ID":41601,"ELEMENT_SET_NO":999,"REV_AT_EPOCH":54204,"BSTAR":0.00032341937,"MEAN_MOTION_DOT":0.00010713,"MEAN_MOTION_DDOT":0},{"OBJECT_NAME":"LAPAN-A3","OBJECT_ID":"2016-040E","EPOCH":"2026-03-06T21:22:24.725280","MEAN_MOTION":15.32352035,"ECCENTRICITY":0.0011376,"INCLINATION":97.1482,"RA_OF_ASC_NODE":65.4612,"ARG_OF_PERICENTER":32.1661,"MEAN_ANOMALY":328.0273,"EPHEMERIS_TYPE":0,"CLASSIFICATION_TYPE":"U","NORAD_CAT_ID":41603,"ELEMENT_SET_NO":999,"REV_AT_EPOCH":53914,"BSTAR":0.00020205,"MEAN_MOTION_DOT":6.248e-5,"MEAN_MOTION_DDOT":0},{"OBJECT_NAME":"GAOFEN-3","OBJECT_ID":"2016-049A","EPOCH":"2026-03-06T21:22:08.044896","MEAN_MOTION":14.42214681,"ECCENTRICITY":0.0001654,"INCLINATION":98.4049,"RA_OF_ASC_NODE":75.2045,"ARG_OF_PERICENTER":93.0707,"MEAN_ANOMALY":267.0672,"EPHEMERIS_TYPE":0,"CLASSIFICATION_TYPE":"U","NORAD_CAT_ID":41727,"ELEMENT_SET_NO":999,"REV_AT_EPOCH":50390,"BSTAR":-3.3682e-5,"MEAN_MOTION_DOT":-1.54e-6,"MEAN_MOTION_DDOT":0},{"OBJECT_NAME":"SKYSAT-C4","OBJECT_ID":"2016-058B","EPOCH":"2026-03-06T19:20:56.683968","MEAN_MOTION":15.45249371,"ECCENTRICITY":8.12e-5,"INCLINATION":96.929,"RA_OF_ASC_NODE":92.0409,"ARG_OF_PERICENTER":101.2909,"MEAN_ANOMALY":258.8432,"EPHEMERIS_TYPE":0,"CLASSIFICATION_TYPE":"U","NORAD_CAT_ID":41771,"ELEMENT_SET_NO":999,"REV_AT_EPOCH":52964,"BSTAR":0.00043604,"MEAN_MOTION_DOT":0.00020676,"MEAN_MOTION_DDOT":0},{"OBJECT_NAME":"SKYSAT-C5","OBJECT_ID":"2016-058C","EPOCH":"2026-03-06T08:51:09.584352","MEAN_MOTION":15.34211377,"ECCENTRICITY":0.00018036,"INCLINATION":97.0615,"RA_OF_ASC_NODE":110.5767,"ARG_OF_PERICENTER":85.3164,"MEAN_ANOMALY":274.8286,"EPHEMERIS_TYPE":0,"CLASSIFICATION_TYPE":"U","NORAD_CAT_ID":41772,"ELEMENT_SET_NO":999,"REV_AT_EPOCH":52798,"BSTAR":0.00030537701,"MEAN_MOTION_DOT":0.00010041,"MEAN_MOTION_DDOT":0},{"OBJECT_NAME":"SKYSAT-C2","OBJECT_ID":"2016-058D","EPOCH":"2026-03-06T18:48:28.005408","MEAN_MOTION":15.39605778,"ECCENTRICITY":0.0005182,"INCLINATION":97.0281,"RA_OF_ASC_NODE":91.8494,"ARG_OF_PERICENTER":74.6583,"MEAN_ANOMALY":285.5236,"EPHEMERIS_TYPE":0,"CLASSIFICATION_TYPE":"U","NORAD_CAT_ID":41773,"ELEMENT_SET_NO":999,"REV_AT_EPOCH":52928,"BSTAR":0.00040127,"MEAN_MOTION_DOT":0.00015746,"MEAN_MOTION_DDOT":0},{"OBJECT_NAME":"SKYSAT-C3","OBJECT_ID":"2016-058E","EPOCH":"2026-03-06T06:17:01.713696","MEAN_MOTION":15.48133107,"ECCENTRICITY":0.00016162,"INCLINATION":96.9176,"RA_OF_ASC_NODE":100.2785,"ARG_OF_PERICENTER":106.4419,"MEAN_ANOMALY":253.701,"EPHEMERIS_TYPE":0,"CLASSIFICATION_TYPE":"U","NORAD_CAT_ID":41774,"ELEMENT_SET_NO":999,"REV_AT_EPOCH":53016,"BSTAR":0.00045033047,"MEAN_MOTION_DOT":0.00023595,"MEAN_MOTION_DDOT":0},{"OBJECT_NAME":"ALSAT-1B","OBJECT_ID":"2016-059C","EPOCH":"2026-03-06T21:13:42.733632","MEAN_MOTION":14.72185161,"ECCENTRICITY":0.0008893,"INCLINATION":97.78,"RA_OF_ASC_NODE":79.0492,"ARG_OF_PERICENTER":186.4496,"MEAN_ANOMALY":173.6599,"EPHEMERIS_TYPE":0,"CLASSIFICATION_TYPE":"U","NORAD_CAT_ID":41785,"ELEMENT_SET_NO":999,"REV_AT_EPOCH":50552,"BSTAR":0.00013788,"MEAN_MOTION_DOT":8.22e-6,"MEAN_MOTION_DDOT":0},{"OBJECT_NAME":"PATHFINDER 1","OBJECT_ID":"2016-059E","EPOCH":"2026-03-06T06:04:34.150656","MEAN_MOTION":14.67511113,"ECCENTRICITY":0.00286505,"INCLINATION":97.8176,"RA_OF_ASC_NODE":69.1831,"ARG_OF_PERICENTER":171.6406,"MEAN_ANOMALY":188.5283,"EPHEMERIS_TYPE":0,"CLASSIFICATION_TYPE":"U","NORAD_CAT_ID":41787,"ELEMENT_SET_NO":999,"REV_AT_EPOCH":50461,"BSTAR":0.00019903157,"MEAN_MOTION_DOT":1.088e-5,"MEAN_MOTION_DDOT":0},{"OBJECT_NAME":"SCATSAT 1","OBJECT_ID":"2016-059H","EPOCH":"2026-03-06T09:46:04.668672","MEAN_MOTION":14.79250834,"ECCENTRICITY":0.00541759,"INCLINATION":98.1311,"RA_OF_ASC_NODE":128.0806,"ARG_OF_PERICENTER":218.1979,"MEAN_ANOMALY":141.5388,"EPHEMERIS_TYPE":0,"CLASSIFICATION_TYPE":"U","NORAD_CAT_ID":41790,"ELEMENT_SET_NO":999,"REV_AT_EPOCH":8639,"BSTAR":0.00027286921,"MEAN_MOTION_DOT":2.021e-5,"MEAN_MOTION_DDOT":0},{"OBJECT_NAME":"GOKTURK 1A","OBJECT_ID":"2016-073A","EPOCH":"2026-03-06T20:16:56.011872","MEAN_MOTION":14.62746018,"ECCENTRICITY":0.0001359,"INCLINATION":98.137,"RA_OF_ASC_NODE":322.0612,"ARG_OF_PERICENTER":79.7207,"MEAN_ANOMALY":280.4148,"EPHEMERIS_TYPE":0,"CLASSIFICATION_TYPE":"U","NORAD_CAT_ID":41875,"ELEMENT_SET_NO":999,"REV_AT_EPOCH":49386,"BSTAR":0.0001328,"MEAN_MOTION_DOT":6.3e-6,"MEAN_MOTION_DDOT":0}]
